[{"OBJECT_NAME":"STARLINK-31629","OBJECT_ID":"2024-050B","EPOCH":"2026-03-09T14:17:52.970208","MEAN_MOTION":15.30181219,"ECCENTRICITY":0.0001154,"INCLINATION":53.1601,"RA_OF_ASC_NODE":181.4675,"ARG_OF_PERICENTER":93.6915,"MEAN_ANOMALY":266.4217,"EPHEMERIS_TYPE":0,"CLASSIFICATION_TYPE":"U","NORAD_CAT_ID":59255,"ELEMENT_SET_NO":999,"REV_AT_EPOCH":11053,"BSTAR":2.9326e-5,"MEAN_MOTION_DOT":5.09e-6,"MEAN_MOTION_DDOT":0},{"OBJECT_NAME":"HERMES-3","OBJECT_ID":"2025-052BR","EPOCH":"2026-03-09T22:30:01.073952","MEAN_MOTION":15.30039786,"ECCENTRICITY":0.00079928,"INCLINATION":97.3987,"RA_OF_ASC_NODE":324.6131,"ARG_OF_PERICENTER":112.9583,"MEAN_ANOMALY":247.2502,"EPHEMERIS_TYPE":0,"CLASSIFICATION_TYPE":"U","NORAD_CAT_ID":63835,"ELEMENT_SET_NO":999,"REV_AT_EPOCH":5486,"BSTAR":0.0006995793,"MEAN_MOTION_DOT":0.00020316,"MEAN_MOTION_DDOT":0}]
